ONEWEB-0645             
1 55809U 23029P   24141.37652050  .00000071  00000+0  14555-3 0  9993
2 55809  87.9140  95.7880 0002245  99.1706 260.9680 13.19724209 58956
ONEWEB-0646             
1 55810U 23029Q   24141.86144354  .00000042  00000+0  72912-4 0  9992
2 55810  87.9140  95.6914 0002356  85.6612 274.4790 13.19725528 59693
ONEWEB-0648             
1 55811U 23029R   24141.89266496  .00000496  00000+0  13045-2 0  9991
2 55811  87.8963  80.3765 0002648 103.5651 256.5774 13.14501273 60619
ONEWEB-0649             
1 55812U 23029S   24141.36943631  .00000079  00000+0  16410-3 0  9994
2 55812  87.9138  95.7856 0002427  94.1309 266.0101 13.19725972 58971
ONEWEB-0650             
1 55813U 23029T   24141.89540763  .00000122  00000+0  27282-3 0  9990
2 55813  87.9139  95.6819 0002440  87.0753 273.0659 13.19727487 59701
ONEWEB-0652             
1 55814U 23029U   24141.87362164 -.00000021  00000+0 -90023-4 0  9990
2 55814  87.8961  80.3918 0001898  77.7944 282.3399 13.14505999 60566
ONEWEB-0653             
1 55815U 23029V   24141.32495012  .00000758  00000+0  20096-2 0  9996
2 55815  87.8961  80.4801 0001611  85.5618 274.5696 13.14502428 59832
ONEWEB-0654             
1 55816U 23029W   24141.32018813 -.00000206  00000+0 -59067-3 0  9998
2 55816  87.8962  80.4924 0001658  72.1353 287.9957 13.14500834 59858
